OBJECT_NAME,OBJECT_ID,EPOCH,MEAN_MOTION,ECCENTRICITY,INCLINATION,RA_OF_ASC_NODE,ARG_OF_PERICENTER,MEAN_ANOMALY,EPHEMERIS_TYPE,CLASSIFICATION_TYPE,NORAD_CAT_ID,ELEMENT_SET_NO,REV_AT_EPOCH,BSTAR,MEAN_MOTION_DOT,MEAN_MOTION_DDOT
ONEWEB-0637,2023-043AJ,2026-06-27T11:22:05.880288,13.15549883,.0002195,87.8998,257.1652,92.4989,267.6393,0,U,56078,999,15778,-.29037E-3,-.96E-6,0
ONEWEB-0647,2023-043AK,2026-06-27T11:15:15.703200,13.15549607,.0001844,87.8998,257.1786,99.9989,260.1349,0,U,56079,999,15777,-.41562E-3,-.144E-5,0
ONEWEB-0651,2023-043AL,2026-06-27T12:57:55.920384,13.15549940,.0002008,87.8999,257.1580,92.6597,267.4763,0,U,56080,999,15898,.19651E-3,.87E-6,0
ONEWEB-0718,2023-043AM,2026-06-27T11:01:34.096224,13.15547598,.0002491,87.8996,257.1548,103.1198,257.0211,0,U,56081,999,15778,-.12218E-3,-.33E-6,0
ONEWEB-0561,2023-068A,2026-06-27T12:00:50.827392,13.20774165,.0001669,87.9196,272.3882,95.9212,264.2111,0,U,56710,999,15086,.68502E-4,.41E-6,0
ONEWEB-0668,2023-068B,2026-06-27T09:13:42.813120,13.16595485,.0002592,87.9090,226.7472,91.8089,268.3338,0,U,56711,999,15312,-.80139E-4,-.18E-6,0
ONEWEB-0676,2023-068C,2026-06-27T09:25:06.690720,13.16593884,.0001891,87.9090,226.7519,88.0380,272.0968,0,U,56712,999,15304,-.28752E-4,.2E-7,0
ONEWEB-0677,2023-068D,2026-06-27T11:43:53.729184,13.20770874,.000213,87.9195,272.3819,89.4503,270.6874,0,U,56713,999,15116,-.89283E-4,-.23E-6,0
ONEWEB-0678,2023-068E,2026-06-27T12:05:27.112128,13.15549058,.0001784,87.9006,257.1390,105.5207,254.6121,0,U,56714,999,15064,-.13937E-4,.8E-7,0
ONEWEB-0679,2023-068F,2026-06-27T12:04:41.606112,13.16592971,.0002394,87.9089,226.7214,83.7468,276.3936,0,U,56715,999,15308,.3523E-3,.148E-5,0
ONEWEB-0680,2023-068G,2026-06-27T11:11:27.409344,13.21825554,.0002577,87.9257,241.9268,90.8020,269.3409,0,U,56716,999,15245,.66262E-4,.4E-6,0
ONEWEB-0681,2023-068H,2026-06-27T10:43:35.209056,13.21828536,.0001535,87.9251,241.9313,71.1894,288.9407,0,U,56717,999,15244,.13808E-3,.7E-6,0
ONEWEB-0682,2023-068J,2026-06-27T10:50:09.727008,13.15549651,.0002504,87.9006,257.1499,92.5749,267.5668,0,U,56718,999,15080,.3798E-3,.156E-5,0
ONEWEB-0683,2023-068K,2026-06-27T11:24:22.881312,13.15550207,.0002305,87.9008,257.1450,98.6595,261.4796,0,U,56719,999,15077,-.2705E-3,-.89E-6,0
ONEWEB-0684,2023-068L,2026-06-27T11:35:47.889024,13.15549277,.0002179,87.9007,257.1333,136.9995,223.1306,0,U,56720,999,15060,-.34427E-3,-.117E-5,0
ONEWEB-0686,2023-068M,2026-06-27T12:57:08.411616,13.16595408,.0002382,87.9082,226.7364,101.2126,258.9273,0,U,56721,999,15307,-.20696E-3,-.66E-6,0
ONEWEB-0694,2023-068N,2026-06-27T09:27:23.088672,13.16595031,.0002532,87.9100,226.7320,91.7452,268.3969,0,U,56722,999,15311,-.13661E-3,-.39E-6,0
ONEWEB-0696,2023-068P,2026-06-27T12:23:42.719424,13.15548122,.0001649,87.8999,257.1643,109.7191,250.4118,0,U,56723,999,15072,.49734E-3,.2E-5,0
ONEWEB-0703,2023-068Q,2026-06-27T10:47:51.271872,13.15547425,.0001144,87.9000,257.1586,108.3768,251.7487,0,U,56724,999,15060,.24981E-3,.107E-5,0
ONEWEB-0721,2023-068R,2026-06-27T12:07:28.841088,13.22470104,.0001858,86.6763,82.2233,78.2259,281.9082,0,U,56725,999,15930,.74196E-4,.45E-6,0
ONEWEB-0015,2024-188A,2026-06-27T12:47:51.319968,13.11417754,.000196,87.8879,19.0330,71.4067,288.7274,0,U,61594,999,8581,.80759E-3,.299E-5,0
ONEWEB-0687,2024-188B,2026-06-27T11:34:19.367040,13.17648729,.0002299,87.9125,3.8276,82.6152,277.5241,0,U,61595,999,8725,.12997E-3,.63E-6,0
ONEWEB-0688,2024-188C,2026-06-27T12:15:37.527264,13.17649811,.0002229,87.9126,3.8218,56.4672,303.6672,0,U,61596,999,8725,.19901E-3,.9E-6,0
ONEWEB-0689,2024-188D,2026-06-27T13:36:40.239360,13.11413724,.0002132,87.8893,18.9856,89.7619,270.3753,0,U,61597,999,8581,-.84289E-4,-.17E-6,0
ONEWEB-0690,2024-188E,2026-06-27T12:01:27.319296,13.11415936,.0001197,87.8888,19.0101,92.0987,268.0278,0,U,61598,999,8598,-.12141E-2,-.418E-5,0
ONEWEB-0691,2024-188F,2026-06-27T11:54:07.773120,13.11416238,.0001994,87.8898,18.9207,77.4735,282.6616,0,U,61599,999,8583,-.85552E-3,-.291E-5,0
ONEWEB-0692,2024-188G,2026-06-27T12:23:26.047680,13.11417912,.0002277,87.8880,19.0281,106.7669,253.3709,0,U,61600,999,8582,-.98019E-3,-.335E-5,0
ONEWEB-0693,2024-188H,2026-06-27T12:32:38.385600,13.17649176,.0001078,87.9124,3.8389,85.9151,274.2104,0,U,61601,999,8724,.73913E-4,.42E-6,0
ONEWEB-0695,2024-188J,2026-06-27T11:49:15.303072,13.11415573,.0002288,87.8878,19.0246,96.5168,263.6221,0,U,61602,999,8581,-.48807E-3,-.16E-5,0
ONEWEB-0697,2024-188K,2026-06-27T12:35:38.761152,13.11417908,.0002147,87.8882,19.0085,107.6990,252.4372,0,U,61603,999,8580,-.20231E-3,-.59E-6,0
ONEWEB-0698,2024-188L,2026-06-27T12:03:53.798400,13.11416363,.0001579,87.8876,19.0272,127.1939,232.9333,0,U,61604,999,8582,-.12374E-2,-.426E-5,0
