ONEWEB-0637             
1 56078U 23043AJ  26178.47367917 -.00000096  00000+0 -29037-3 0  9996
2 56078  87.8998 257.1652 0002195  92.4989 267.6393 13.15549883157784
ONEWEB-0647             
1 56079U 23043AK  26178.46893175 -.00000144  00000+0 -41562-3 0  9997
2 56079  87.8998 257.1786 0001844  99.9989 260.1349 13.15549607157777
ONEWEB-0651             
1 56080U 23043AL  26178.54023056  .00000087  00000+0  19651-3 0  9999
2 56080  87.8999 257.1580 0002008  92.6597 267.4763 13.15549940158984
ONEWEB-0718             
1 56081U 23043AM  26178.45942241 -.00000033  00000+0 -12218-3 0  9991
2 56081  87.8996 257.1548 0002491 103.1198 257.0211 13.15547598157784
ONEWEB-0561             
1 56710U 23068A   26178.50058828  .00000041  00000+0  68502-4 0  9997
2 56710  87.9196 272.3882 0001669  95.9212 264.2111 13.20774165150866
ONEWEB-0668             
1 56711U 23068B   26178.38452330 -.00000018  00000+0 -80139-4 0  9996
2 56711  87.9090 226.7472 0002592  91.8089 268.3338 13.16595485153120
ONEWEB-0676             
1 56712U 23068C   26178.39243855  .00000002  00000+0 -28752-4 0  9993
2 56712  87.9090 226.7519 0001891  88.0380 272.0968 13.16593884153049
ONEWEB-0677             
1 56713U 23068D   26178.48881631 -.00000023  00000+0 -89283-4 0  9994
2 56713  87.9195 272.3819 0002130  89.4503 270.6874 13.20770874151167
ONEWEB-0678             
1 56714U 23068E   26178.50378602  .00000008  00000+0 -13937-4 0  9992
2 56714  87.9006 257.1390 0001784 105.5207 254.6121 13.15549058150640
ONEWEB-0679             
1 56715U 23068F   26178.50325933  .00000148  00000+0  35230-3 0  9995
2 56715  87.9089 226.7214 0002394  83.7468 276.3936 13.16592971153082
ONEWEB-0680             
1 56716U 23068G   26178.46628946  .00000040  00000+0  66262-4 0  9992
2 56716  87.9257 241.9268 0002577  90.8020 269.3409 13.21825554152453
ONEWEB-0681             
1 56717U 23068H   26178.44693529  .00000070  00000+0  13808-3 0  9990
2 56717  87.9251 241.9313 0001535  71.1894 288.9407 13.21828536152440
ONEWEB-0682             
1 56718U 23068J   26178.45150147  .00000156  00000+0  37980-3 0  9998
2 56718  87.9006 257.1499 0002504  92.5749 267.5668 13.15549651150807
ONEWEB-0683             
1 56719U 23068K   26178.47526483 -.00000089  00000+0 -27050-3 0  9995
2 56719  87.9008 257.1450 0002305  98.6595 261.4796 13.15550207150772
ONEWEB-0684             
1 56720U 23068L   26178.48319316 -.00000117  00000+0 -34427-3 0  9991
2 56720  87.9007 257.1333 0002179 136.9995 223.1306 13.15549277150601
ONEWEB-0686             
1 56721U 23068M   26178.53968069 -.00000066  00000+0 -20696-3 0  9999
2 56721  87.9082 226.7364 0002382 101.2126 258.9273 13.16595408153079
ONEWEB-0694             
1 56722U 23068N   26178.39401723 -.00000039  00000+0 -13661-3 0  9997
2 56722  87.9100 226.7320 0002532  91.7452 268.3969 13.16595031153119
ONEWEB-0696             
1 56723U 23068P   26178.51646666  .00000200  00000+0  49734-3 0  9997
2 56723  87.8999 257.1643 0001649 109.7191 250.4118 13.15548122150729
ONEWEB-0703             
1 56724U 23068Q   26178.44989898  .00000107  00000+0  24981-3 0  9990
2 56724  87.9000 257.1586 0001144 108.3768 251.7487 13.15547425150600
ONEWEB-0721             
1 56725U 23068R   26178.50519492  .00000045  00000+0  74196-4 0  9992
2 56725  86.6763  82.2233 0001858  78.2259 281.9082 13.22470104159300
ONEWEB-0015             
1 61594U 24188A   26178.53323287  .00000299  00000+0  80759-3 0  9996
2 61594  87.8879  19.0330 0001960  71.4067 288.7274 13.11417754 85815
ONEWEB-0687             
1 61595U 24188B   26178.48216860  .00000063  00000+0  12997-3 0  9997
2 61595  87.9125   3.8276 0002299  82.6152 277.5241 13.17648729 87250
ONEWEB-0688             
1 61596U 24188C   26178.51085101  .00000090  00000+0  19901-3 0  9996
2 61596  87.9126   3.8218 0002229  56.4672 303.6672 13.17649811 87259
ONEWEB-0689             
1 61597U 24188D   26178.56713240 -.00000017  00000+0 -84289-4 0  9997
2 61597  87.8893  18.9856 0002132  89.7619 270.3753 13.11413724 85814
ONEWEB-0690             
1 61598U 24188E   26178.50101064 -.00000418  00000+0 -12141-2 0  9998
2 61598  87.8888  19.0101 0001197  92.0987 268.0278 13.11415936 85980
ONEWEB-0691             
1 61599U 24188F   26178.49592330 -.00000291  00000+0 -85552-3 0  9993
2 61599  87.8898  18.9207 0001994  77.4735 282.6616 13.11416238 85838
ONEWEB-0692             
1 61600U 24188G   26178.51627370 -.00000335  00000+0 -98019-3 0  9993
2 61600  87.8880  19.0281 0002277 106.7669 253.3709 13.11417912 85820
ONEWEB-0693             
1 61601U 24188H   26178.52266650  .00000042  00000+0  73913-4 0  9995
2 61601  87.9124   3.8389 0001078  85.9151 274.2104 13.17649176 87249
ONEWEB-0695             
1 61602U 24188J   26178.49253823 -.00000160  00000+0 -48807-3 0  9996
2 61602  87.8878  19.0246 0002288  96.5168 263.6221 13.11415573 85815
ONEWEB-0697             
1 61603U 24188K   26178.52475418 -.00000059  00000+0 -20231-3 0  9995
2 61603  87.8882  19.0085 0002147 107.6990 252.4372 13.11417908 85809
ONEWEB-0698             
1 61604U 24188L   26178.50270600 -.00000426  00000+0 -12374-2 0  9996
2 61604  87.8876  19.0272 0001579 127.1939 232.9333 13.11416363 85825
